start=new Date('2022-07-14T00:00:00.000Z').valueOf();
sats=[{"RCS_SIZE":"LARGE","CENTER_NAME":"EARTH","INCLINATION":"53.0540","MEAN_MOTION":"15.06400669","MEAN_MOTION_DDOT":"0.0000000000000","RA_OF_ASC_NODE":"199.4776","OBJECT_TYPE":"PAYLOAD","BSTAR":"0.00000384930000","SEMIMAJOR_AXIS":"6925.347","EPOCH":"2022-07-13T17:35:57.800832","TLE_LINE2":"2 44943  53.0540 199.4776 0001430  71.2849 288.8295 15.06400669138916","MEAN_ELEMENT_THEORY":"SGP4","REV_AT_EPOCH":"13891","EPHEMERIS_TYPE":"0","OBJECT_ID":"2020-001AF","NORAD_CAT_ID":"44943","FILE":"3513188","MEAN_MOTION_DOT":"-0.00000224","COUNTRY_CODE":"US","ECCENTRICITY":"0.00014300","PERIAPSIS":"546.221","MEAN_ANOMALY":"288.8295","APOAPSIS":"548.202","REF_FRAME":"TEME","OBJECT_NAME":"STARLINK-1100","ELEMENT_SET_NO":"999","LAUNCH_DATE":"2020-01-07","SITE":"AFETR","TIME_SYSTEM":"UTC","ARG_OF_PERICENTER":"71.2849","CLASSIFICATION_TYPE":"U","PERIOD":"95.592","TLE_LINE1":"1 44943U 20001AF  22194.73330788 -.00000224  00000-0  38493-5 0  9995","DECAY_DATE":null,"GP_ID":"208063790"},{"PERIAPSIS":"546.133","ECCENTRICITY":"0.00015720","COUNTRY_CODE":"US","MEAN_ANOMALY":"296.5410","EPOCH":"2022-07-13T17:09:24.564096","SEMIMAJOR_AXIS":"6925.356","BSTAR":"0.00000041867000","OBJECT_TYPE":"PAYLOAD","NORAD_CAT_ID":"44944","FILE":"3513188","MEAN_MOTION_DOT":"-0.00000275","OBJECT_ID":"2020-001AG","REV_AT_EPOCH":"13891","EPHEMERIS_TYPE":"0","MEAN_ELEMENT_THEORY":"SGP4","TLE_LINE2":"2 44944  53.0545 199.5599 0001572  63.5740 296.5410 15.06397493138912","MEAN_MOTION_DDOT":"0.0000000000000","MEAN_MOTION":"15.06397493","INCLINATION":"53.0545","RA_OF_ASC_NODE":"199.5599","CENTER_NAME":"EARTH","RCS_SIZE":"LARGE","TLE_LINE1":"1 44944U 20001AG  22194.71486764 -.00000275  00000-0  41867-6 0  9996","DECAY_DATE":null,"PERIOD":"95.592","CLASSIFICATION_TYPE":"U","GP_ID":"208064044","ELEMENT_SET_NO":"999","LAUNCH_DATE":"2020-01-07","OBJECT_NAME":"STARLINK-1108","TIME_SYSTEM":"UTC","ARG_OF_PERICENTER":"63.5740","SITE":"AFETR","REF_FRAME":"TEME","APOAPSIS":"548.310"},{"APOAPSIS":"548.228","REF_FRAME":"TEME","OBJECT_NAME":"STARLINK-1109","ELEMENT_SET_NO":"999","LAUNCH_DATE":"2020-01-07","TIME_SYSTEM":"UTC","ARG_OF_PERICENTER":"54.1921","SITE":"AFETR","TLE_LINE1":"1 44945U 20001AH  22194.74434839  .00000223  00000-0  33847-4 0  9995","DECAY_DATE":null,"PERIOD":"95.592","CLASSIFICATION_TYPE":"U","GP_ID":"208064786","CENTER_NAME":"EARTH","RCS_SIZE":"LARGE","MEAN_MOTION":"15.06405845","MEAN_MOTION_DDOT":"0.0000000000000","INCLINATION":"53.0525","RA_OF_ASC_NODE":"199.4166","BSTAR":"0.00003384700000","SEMIMAJOR_AXIS":"6925.331","EPOCH":"2022-07-13T17:51:51.700896","OBJECT_TYPE":"PAYLOAD","NORAD_CAT_ID":"44945","FILE":"3513188","MEAN_MOTION_DOT":"0.00000223","MEAN_ELEMENT_THEORY":"SGP4","TLE_LINE2":"2 44945  53.0525 199.4166 0001491  54.1921 305.9207 15.06405845138917","REV_AT_EPOCH":"13891","EPHEMERIS_TYPE":"0","OBJECT_ID":"2020-001AH","ECCENTRICITY":"0.00014910","COUNTRY_CODE":"US","PERIAPSIS":"546.163","MEAN_ANOMALY":"305.9207"},{"RCS_SIZE":"LARGE","CENTER_NAME":"EARTH","INCLINATION":"53.0041","MEAN_MOTION_DDOT":"0.0000000000000","MEAN_MOTION":"15.15054836","RA_OF_ASC_NODE":"186.1147","OBJECT_TYPE":"PAYLOAD","EPOCH":"2022-07-13T16:15:00.901728","SEMIMAJOR_AXIS":"6898.949","BSTAR":"0.00031563000000","REV_AT_EPOCH":"13906","OBJECT_ID":"2020-001AJ","EPHEMERIS_TYPE":"0","TLE_LINE2":"2 44946  53.0041 186.1147 0001150 351.1405   8.9567 15.15054836139068","MEAN_ELEMENT_THEORY":"SGP4","FILE":"3513188","NORAD_CAT_ID":"44946","MEAN_MOTION_DOT":"0.00005671","PERIAPSIS":"520.021","COUNTRY_CODE":"US","ECCENTRICITY":"0.00011500","MEAN_ANOMALY":"8.9567","APOAPSIS":"521.607","REF_FRAME":"TEME","ELEMENT_SET_NO":"999","LAUNCH_DATE":"2020-01-07","OBJECT_NAME":"STARLINK-1110","SITE":"AFETR","ARG_OF_PERICENTER":"351.1405","TIME_SYSTEM":"UTC","CLASSIFICATION_TYPE":"U","DECAY_DATE":null,"TLE_LINE1":"1 44946U 20001AJ  22194.67709377  .00005671  00000-0  31563-3 0  9994","PERIOD":"95.046","GP_ID":"208063044"},{"REF_FRAME":"TEME","APOAPSIS":"548.396","GP_ID":"208032196","CLASSIFICATION_TYPE":"U","DECAY_DATE":null,"TLE_LINE1":"1 44947U 20001AK  22194.43473670  .00001719  00000-0  13427-3 0  9991","PERIOD":"95.592","SITE":"AFETR","TIME_SYSTEM":"UTC","ARG_OF_PERICENTER":"57.2231","OBJECT_NAME":"STARLINK-1116","LAUNCH_DATE":"2020-01-07","ELEMENT_SET_NO":"999","RA_OF_ASC_NODE":"200.8032","INCLINATION":"53.0540","MEAN_MOTION":"15.06404532","MEAN_MOTION_DDOT":"0.0000000000000","RCS_SIZE":"LARGE","CENTER_NAME":"EARTH","MEAN_ANOMALY":"302.8925","COUNTRY_CODE":"US","ECCENTRICITY":"0.00017280","PERIAPSIS":"546.003","TLE_LINE2":"2 44947  53.0540 200.8032 0001728  57.2231 302.8925 15.06404532138876","MEAN_ELEMENT_THEORY":"SGP4","REV_AT_EPOCH":"13887","EPHEMERIS_TYPE":"0","OBJECT_ID":"2020-001AK","FILE":"3512925","NORAD_CAT_ID":"44947","MEAN_MOTION_DOT":"0.00001719","OBJECT_TYPE":"PAYLOAD","BSTAR":"0.00013427000000","EPOCH":"2022-07-13T10:26:01.250880","SEMIMAJOR_AXIS":"6925.335"},{"OBJECT_NAME":"STARLINK-1122","ELEMENT_SET_NO":"999","LAUNCH_DATE":"2020-01-07","SITE":"AFETR","ARG_OF_PERICENTER":"65.2173","TIME_SYSTEM":"UTC","CLASSIFICATION_TYPE":"U","DECAY_DATE":null,"TLE_LINE1":"1 44949U 20001AM  22194.72592559  .00001851  00000-0  14315-3 0  9997","PERIOD":"95.592","GP_ID":"208064543","APOAPSIS":"548.266","REF_FRAME":"TEME","OBJECT_TYPE":"PAYLOAD","BSTAR":"0.00014315000000","SEMIMAJOR_AXIS":"6925.365","EPOCH":"2022-07-13T17:25:19.970976","MEAN_ELEMENT_THEORY":"SGP4","TLE_LINE2":"2 44949  53.0535 199.5025 0001496  65.2173 294.8972 15.06394740138910","REV_AT_EPOCH":"13891","EPHEMERIS_TYPE":"0","OBJECT_ID":"2020-001AM","NORAD_CAT_ID":"44949","FILE":"3513188","MEAN_MOTION_DOT":"0.00001851","ECCENTRICITY":"0.00014960","COUNTRY_CODE":"US","PERIAPSIS":"546.194","MEAN_ANOMALY":"294.8972","CENTER_NAME":"EARTH","RCS_SIZE":"LARGE","INCLINATION":"53.0535","MEAN_MOTION":"15.06394740","MEAN_MOTION_DDOT":"0.0000000000000","RA_OF_ASC_NODE":"199.5025"},{"REF_FRAME":"TEME","APOAPSIS":"536.325","CLASSIFICATION_TYPE":"U","DECAY_DATE":null,"TLE_LINE1":"1 44950U 20001AN  22194.49862849  .00015976  00000-0  97659-3 0  9990","PERIOD":"95.338","GP_ID":"208011827","OBJECT_NAME":"STARLINK-1125","ELEMENT_SET_NO":"999","LAUNCH_DATE":"2020-01-07","SITE":"AFETR","ARG_OF_PERICENTER":"16.1240","TIME_SYSTEM":"UTC","INCLINATION":"53.0499","MEAN_MOTION":"15.10414848","MEAN_MOTION_DDOT":"0.0000000000000","RA_OF_ASC_NODE":"198.6594","RCS_SIZE":"LARGE","CENTER_NAME":"EARTH","ECCENTRICITY":"0.00020100","COUNTRY_CODE":"US","PERIAPSIS":"533.546","MEAN_ANOMALY":"343.9814","OBJECT_TYPE":"PAYLOAD","BSTAR":"0.00097659000000","EPOCH":"2022-07-13T11:58:01.501536","SEMIMAJOR_AXIS":"6913.071","MEAN_ELEMENT_THEORY":"SGP4","TLE_LINE2":"2 44950  53.0499 198.6594 0002010  16.1240 343.9814 15.10414848138902","EPHEMERIS_TYPE":"0","REV_AT_EPOCH":"13890","OBJECT_ID":"2020-001AN","NORAD_CAT_ID":"44950","FILE":"3512866","MEAN_MOTION_DOT":"0.00015976"},{"APOAPSIS":"522.668","REF_FRAME":"TEME","SITE":"AFETR","TIME_SYSTEM":"UTC","ARG_OF_PERICENTER":"346.4346","ELEMENT_SET_NO":"999","LAUNCH_DATE":"2020-01-07","OBJECT_NAME":"STARLINK-1126","GP_ID":"208063543","CLASSIFICATION_TYPE":"U","TLE_LINE1":"1 44951U 20001AP  22194.71236604  .00006733  00000-0  37504-3 0  9994","DECAY_DATE":null,"PERIOD":"95.067","CENTER_NAME":"EARTH","RCS_SIZE":"LARGE","RA_OF_ASC_NODE":"186.8599","INCLINATION":"53.0023","MEAN_MOTION_DDOT":"0.0000000000000","MEAN_MOTION":"15.14728428","REV_AT_EPOCH":"14034","OBJECT_ID":"2020-001AP","EPHEMERIS_TYPE":"0","TLE_LINE2":"2 44951  53.0023 186.8599 0001250 346.4346  13.6612 15.14728428140345","MEAN_ELEMENT_THEORY":"SGP4","FILE":"3513188","NORAD_CAT_ID":"44951","MEAN_MOTION_DOT":"0.00006733","OBJECT_TYPE":"PAYLOAD","EPOCH":"2022-07-13T17:05:48.425856","SEMIMAJOR_AXIS":"6899.940","BSTAR":"0.00037504000000","MEAN_ANOMALY":"13.6612","PERIAPSIS":"520.943","COUNTRY_CODE":"US","ECCENTRICITY":"0.00012500"},{"INCLINATION":"53.0541","MEAN_MOTION_DDOT":"0.0000000000000","MEAN_MOTION":"15.06397168","RA_OF_ASC_NODE":"199.5917","RCS_SIZE":"LARGE","CENTER_NAME":"EARTH","PERIAPSIS":"545.922","ECCENTRICITY":"0.00018780","COUNTRY_CODE":"US","MEAN_ANOMALY":"304.6522","OBJECT_TYPE":"PAYLOAD","EPOCH":"2022-07-13T16:58:49.294272","SEMIMAJOR_AXIS":"6925.357","BSTAR":"0.00015887000000","EPHEMERIS_TYPE":"0","REV_AT_EPOCH":"13891","OBJECT_ID":"2020-001AQ","MEAN_ELEMENT_THEORY":"SGP4","TLE_LINE2":"2 44952  53.0541 199.5917 0001878  55.4644 304.6522 15.06397168138917","MEAN_MOTION_DOT":"0.00002085","FILE":"3513188","NORAD_CAT_ID":"44952","REF_FRAME":"TEME","APOAPSIS":"548.523","CLASSIFICATION_TYPE":"U","DECAY_DATE":null,"TLE_LINE1":"1 44952U 20001AQ  22194.70751498  .00002085  00000-0  15887-3 0  9993","PERIOD":"95.592","GP_ID":"208063791","ELEMENT_SET_NO":"999","LAUNCH_DATE":"2020-01-07","OBJECT_NAME":"STARLINK-1117","SITE":"AFETR","ARG_OF_PERICENTER":"55.4644","TIME_SYSTEM":"UTC"},{"CENTER_NAME":"EARTH","RCS_SIZE":"LARGE","RA_OF_ASC_NODE":"199.4958","MEAN_MOTION":"15.06396742","MEAN_MOTION_DDOT":"0.0000000000000","INCLINATION":"53.0538","FILE":"3513188","NORAD_CAT_ID":"44953","MEAN_MOTION_DOT":"-0.00000463","TLE_LINE2":"2 44953  53.0538 199.4958 0001203  72.9310 287.1811 15.06396742140202","MEAN_ELEMENT_THEORY":"SGP4","OBJECT_ID":"2020-001AR","REV_AT_EPOCH":"14020","EPHEMERIS_TYPE":"0","BSTAR":"-0.00001222600000","EPOCH":"2022-07-13T17:23:58.379136","SEMIMAJOR_AXIS":"6925.359","OBJECT_TYPE":"PAYLOAD","MEAN_ANOMALY":"287.1811","COUNTRY_CODE":"US","ECCENTRICITY":"0.00012030","PERIAPSIS":"546.390","APOAPSIS":"548.057","REF_FRAME":"TEME","ARG_OF_PERICENTER":"72.9310","TIME_SYSTEM":"UTC","SITE":"AFETR","OBJECT_NAME":"STARLINK-1124","ELEMENT_SET_NO":"999","LAUNCH_DATE":"2020-01-07","GP_ID":"208064045","DECAY_DATE":null,"TLE_LINE1":"1 44953U 20001AR  22194.72498124 -.00000463  00000-0 -12226-4 0  9995","PERIOD":"95.592","CLASSIFICATION_TYPE":"U"}];
